

*******************************************************************************
Ephemeris / WWW_USER Mon Dec 22 06:26:48 2025 Pasadena, USA      / Horizons
*******************************************************************************
Target body name: Earth (399)                     {source: DE441}
Center body name: Sun (10)                        {source: DE441}
Center-site name: BODY CENTER
*******************************************************************************
Start time      : A.D. 1995-Jan-01 00:00:00.0000 TDB
Stop  time      : A.D. 1999-Dec-31 00:00:00.0000 TDB
Step-size       : 1440 minutes
*******************************************************************************
Center geodetic : 0.0, 0.0, 0.0                   {E-lon(deg),Lat(deg),Alt(km)}
Center cylindric: 0.0, 0.0, 0.0                   {E-lon(deg),Dxy(km),Dz(km)}
Center radii    : 695700.0, 695700.0, 695700.0 km {Equator_a, b, pole_c}
Output units    : KM-S
Calendar mode   : Gregorian
Output type     : GEOMETRIC cartesian states
Output format   : 2 (position and velocity)
Reference frame : Ecliptic of J2000.0
*******************************************************************************
            JDTDB,            Calendar Date (TDB),                      X,                      Y,                      Z,                     VX,                     VY,                     VZ,
**************************************************************************************************************************************************************************************************
$$SOE
2451051.500000000, A.D. 1998-Aug-26 00:00:00.0000,  1.342333945709794E+08, -6.958365914133142E+07, -7.056857995465398E+02,  1.322184630265187E+01,  2.634595641528671E+01, -6.768524089864059E-04,
2451052.500000000, A.D. 1998-Aug-27 00:00:00.0000,  1.353563625418731E+08, -6.729754202741358E+07, -7.563107542693615E+02,  1.277214757092680E+01,  2.657210065933711E+01, -4.899593994629470E-04,
2451053.500000000, A.D. 1998-Aug-28 00:00:00.0000,  1.364403148573954E+08, -6.499222870112825E+07, -7.895852589383721E+02,  1.231873980443196E+01,  2.679030933972203E+01, -2.764961069328109E-04,
2451054.500000000, A.D. 1998-Aug-29 00:00:00.0000,  1.374849397012452E+08, -6.266840565123706E+07, -8.035488127656281E+02,  1.186182222494186E+01,  2.700056426171516E+01, -4.428075232532080E-05,
2451055.500000000, A.D. 1998-Aug-30 00:00:00.0000,  1.384899422785755E+08, -6.032676050787922E+07, -7.969342366121709E+02,  1.140159001733074E+01,  2.720285739922629E+01,  1.984230161493628E-04,
2451056.500000000, A.D. 1998-Aug-31 00:00:00.0000,  1.394550445513441E+08, -5.796798107868326E+07, -7.692165996506810E+02,  1.093823603460157E+01,  2.739719324554649E+01,  4.426446489542712E-04,
2451057.500000000, A.D. 1998-Sep-01 00:00:00.0000,  1.403799850395376E+08, -5.559275409164907E+07, -7.206884485892951E+02,  1.047195040015746E+01,  2.758359314734376E+01,  6.783773041370011E-04,
2451058.500000000, A.D. 1998-Sep-02 00:00:00.0000,  1.412645184496393E+08, -5.320176350957932E+07, -6.525617537908256E+02,  1.000291668995835E+01,  2.776210066519387E+01,  8.943165030714795E-04,
2451059.500000000, A.D. 1998-Sep-03 00:00:00.0000,  1.421084147831288E+08, -5.079568839956900E+07, -5.670825468115509E+02,  9.531303571147811E+00,  2.793278611410995E+01,  1.077866320942533E-03,
2451060.500000000, A.D. 1998-Sep-04 00:00:00.0000,  1.429114575118718E+08, -4.837520054833534E+07, -4.676245021708310E+02,  9.057251651126895E+00,  2.809574732456530E+01,  1.215663876655171E-03,
2451061.500000000, A.D. 1998-Sep-05 00:00:00.0000,  1.436734404638208E+08, -4.594096230846464E+07, -3.587063723802567E+02,  8.580857301460435E+00,  2.825110291623149E+01,  1.294844369372328E-03,
2451062.500000000, A.D. 1998-Sep-06 00:00:00.0000,  1.443941633411326E+08, -4.349362546217115E+07, -2.458661103527993E+02,  8.102158237218681E+00,  2.839897519160809E+01,  1.305069047946361E-03,
2451063.500000000, A.D. 1998-Sep-07 00:00:00.0000,  1.450734263277104E+08, -4.103383200722958E+07, -1.353386743646115E+02,  7.621128161954531E+00,  2.853946330248908E+01,  1.240938867177022E-03,
2451064.500000000, A.D. 1998-Sep-08 00:00:00.0000,  1.457110248772994E+08, -3.856221747237223E+07, -3.353675088286400E+01,  7.137687075039801E+00,  2.867261308334582E+01,  1.103982771502032E-03,
2451065.500000000, A.D. 1998-Sep-09 00:00:00.0000,  1.463067461307715E+08, -3.607941659753930E+07,  5.358792274817824E+01,  6.651728130030778E+00,  2.879839440099240E+01,  9.033014787274141E-04,
2451066.500000000, A.D. 1998-Sep-10 00:00:00.0000,  1.468603681279613E+08, -3.358607028089360E+07,  1.211618277467787E+02,  6.163153617916898E+00,  2.891669558635019E+01,  6.544204936442810E-04,
2451067.500000000, A.D. 1998-Sep-11 00:00:00.0000,  1.473716620792764E+08, -3.108283216290234E+07,  1.658415378723294E+02,  5.671907727639018E+00,  2.902733693393365E+01,  3.767390800266668E-04,
2451068.500000000, A.D. 1998-Sep-12 00:00:00.0000,  1.478403969481362E+08, -2.857037343872287E+07,  1.860191217530519E+02,  5.177996183086952E+00,  2.913009658309411E+01,  9.055674112090628E-05,
2451069.500000000, A.D. 1998-Sep-13 00:00:00.0000,  1.482663450465891E+08, -2.604938527446103E+07,  1.817879670113325E+02,  4.681490309820542E+00,  2.922473843716513E+01, -1.853750102416285E-04,
2451070.500000000, A.D. 1998-Sep-14 00:00:00.0000,  1.486492874446897E+08, -2.352057902308455E+07,  1.547381217498332E+02,  4.182519679364583E+00,  2.931103429198137E+01, -4.353241502688121E-04,
2451071.500000000, A.D. 1998-Sep-15 00:00:00.0000,  1.489890184826257E+08, -2.098468489286298E+07,  1.076657019266859E+02,  3.681259714968230E+00,  2.938877748376814E+01, -6.471373790084556E-04,
2451072.500000000, A.D. 1998-Sep-16 00:00:00.0000,  1.492853491818385E+08, -1.844244976564630E+07,  4.426205962523818E+01,  3.177919204362237E+00,  2.945778932891159E+01, -8.122092484832422E-04,
2451073.500000000, A.D. 1998-Sep-17 00:00:00.0000,  1.495381096648946E+08, -1.589463467172115E+07, -3.118092772737145E+01,  2.672730020141027E+00,  2.951792109863560E+01, -9.251854700806916E-04,
2451074.500000000, A.D. 1998-Sep-18 00:00:00.0000,  1.497471507960300E+08, -1.334201219759111E+07, -1.140362945059314E+02,  2.165939287304259E+00,  2.956905391283505E+01, -9.836044195505877E-04,
2451075.500000000, A.D. 1998-Sep-19 00:00:00.0000,  1.499123452262521E+08, -1.078536394083589E+07, -1.995769198811613E+02,  1.657803287626541E+00,  2.961109788959194E+01, -9.875539484500706E-04,
2451076.500000000, A.D. 1998-Sep-20 00:00:00.0000,  1.500335879577461E+08, -8.225478054150769E+06, -2.831815307610668E+02,  1.148582323341064E+00,  2.964399093759558E+01, -9.393408443880702E-04,
2451077.500000000, A.D. 1998-Sep-21 00:00:00.0000,  1.501107964900071E+08, -5.663146913165562E+06, -3.605116781201214E+02,  6.385361455421290E-01,  2.966769705809312E+01, -8.431451342261198E-04,
2451078.500000000, A.D. 1998-Sep-22 00:00:00.0000,  1.501439105960582E+08, -3.099164960101701E+06, -4.276575939841568E+02,  1.279200026488574E-01,  2.968220395161915E+01, -7.046455490424819E-04,
2451079.500000000, A.D. 1998-Sep-23 00:00:00.0000,  1.501328917954432E+08, -5.343267844620248E+05, -4.812509411120845E+02, -3.830183643170268E-01,  2.968751995638902E+01, -5.306330883243504E-04,
2451080.500000000, A.D. 1998-Sep-24 00:00:00.0000,  1.500777226208928E+08,  2.030574514551859E+06, -5.185451551422011E+02, -8.940404519993952E-01,  2.968367067229272E+01, -3.286558672108697E-04,
2451081.500000000, A.D. 1998-Sep-25 00:00:00.0000,  1.499784057953314E+08,  4.594748681342348E+06, -5.374683542149141E+02, -1.404917349890033E+00,  2.967069586720632E+01, -1.067477125040739E-04,
2451082.500000000, A.D. 1998-Sep-26 00:00:00.0000,  1.498349634302946E+08,  7.157409426178533E+06, -5.366580212726258E+02, -1.915428958867213E+00,  2.964864732861247E+01,  1.267169596417261E-04,
2451083.500000000, A.D. 1998-Sep-27 00:00:00.0000,  1.496474363212367E+08,  9.717775423284758E+06, -5.154893710399047E+02, -2.425362652224476E+00,  2.961758821256717E+01,  3.630236889815563E-04,
2451084.500000000, A.D. 1998-Sep-28 00:00:00.0000,  1.494158833522824E+08,  1.227507132949830E+07, -4.741095279967412E+02, -2.934512246803914E+00,  2.957759419509701E+01,  5.929883902435762E-04,
2451085.500000000, A.D. 1998-Sep-29 00:00:00.0000,  1.491403809375594E+08,  1.482852897966962E+07, -4.134867326254025E+02, -3.442678385252544E+00,  2.952875636314408E+01,  8.067518995140688E-04,
2451086.500000000, A.D. 1998-Sep-30 00:00:00.0000,  1.488210223233061E+08,  1.737738888767625E+07, -3.354770205253735E+02, -3.949671594230510E+00,  2.947118523829205E+01,  9.936033555959511E-04,
2451087.500000000, A.D. 1998-Oct-01 00:00:00.0000,  1.484579164647802E+08,  1.992090209622893E+07, -2.428991032121703E+02, -4.455319250522083E+00,  2.940501450180599E+01,  1.142000803854515E-03,
2451088.500000000, A.D. 1998-Oct-02 00:00:00.0000,  1.480511861044294E+08,  2.245833224786332E+07, -1.395907590519637E+02, -4.959477120671690E+00,  2.933040185984105E+01,  1.240021177320472E-03,
2451089.500000000, A.D. 1998-Oct-03 00:00:00.0000,  1.476009646807864E+08,  2.498895747805236E+07, -3.039873736910522E+01, -5.462044520442901E+00,  2.924752339407873E+01,  1.276485532795135E-03,
2451090.500000000, A.D. 1998-Oct-04 00:00:00.0000,  1.471073918995024E+08,  2.751207140167289E+07,  7.896280717290938E+01, -5.962979164838806E+00,  2.915655772919472E+01,  1.242873165912428E-03,
2451091.500000000, A.D. 1998-Oct-05 00:00:00.0000,  1.465706082915717E+08,  3.002698223812791E+07,  1.822460553292185E+02, -6.462304301436141E+00,  2.905765903055288E+01,  1.135770640367184E-03,
2451092.500000000, A.D. 1998-Oct-06 00:00:00.0000,  1.459907498040989E+08,  3.253300927824175E+07,  2.732114096470177E+02, -6.960099574379247E+00,  2.895092396167648E+01,  9.590674276918065E-04,
2451093.500000000, A.D. 1998-Oct-07 00:00:00.0000,  1.453679440540741E+08,  3.502947665182078E+07,  3.463075890373439E+02, -7.456471784546943E+00,  2.883636464419477E+01,  7.247751553780546E-04,
